$$SOE
2459580.500000000, A.D. 2022-Jan-01 00:00:00.0000, -2.954269459390411E+08, 2.457620136455539E+08, -1.547629027699679E+06,
2459587.500000000, A.D. 2022-Jan-08 00:00:00.0000, -3.019630667404197E+08, 2.377457599004180E+08, -7.957850225235522E+05,
2459594.500000000, A.D. 2022-Jan-15 00:00:00.0000, -3.082410159251022E+08, 2.295262016878494E+08, -4.325946555560827E+04,
2459601.500000000, A.D. 2022-Jan-22 00:00:00.0000, -3.142553921198543E+08, 2.211103459899596E+08, 7.093037052912265E+05,
2459608.500000000, A.D. 2022-Jan-29 00:00:00.0000, -3.200009153319024E+08, 2.125052996227209E+08, 1.461260255513072E+06,
2459615.500000000, A.D. 2022-Feb-05 00:00:00.0000, -3.254724280124239E+08, 2.037182708717779E+08, 2.211965616068155E+06,
2459622.500000000, A.D. 2022-Feb-12 00:00:00.0000, -3.306648942518456E+08, 1.947565702807919E+08, 2.960774562141612E+06,
2459629.500000000, A.D. 2022-Feb-19 00:00:00.0000, -3.355733984356346E+08, 1.856276129419375E+08, 3.707040925166368E+06,
2459636.500000000, A.D. 2022-Feb-26 00:00:00.0000, -3.401931446858551E+08, 1.763389215509385E+08, 4.450117399653979E+06,
2459643.500000000, A.D. 2022-Mar-05 00:00:00.0000, -3.445194569445217E+08, 1.668981295996918E+08, 5.189355380012721E+06,
2459650.500000000, A.D. 2022-Mar-12 00:00:00.0000, -3.485477794919474E+08, 1.573129846318849E+08, 5.924104802005284E+06,
2459657.500000000, A.D. 2022-Mar-19 00:00:00.0000, -3.522736778440704E+08, 1.475913515813146E+08, 6.653713985196441E+06,
2459664.500000000, A.D. 2022-Mar-26 00:00:00.0000, -3.556928400212662E+08, 1.377412161785223E+08, 7.377529474716865E+06,
2459671.500000000, A.D. 2022-Apr-02 00:00:00.0000, -3.588010781357245E+08, 1.277706883608883E+08, 8.094895872687876E+06,
2459678.500000000, A.D. 2022-Apr-09 00:00:00.0000, -3.615943300401787E+08, 1.176880056811343E+08, 8.805155636061475E+06,
2459685.500000000, A.D. 2022-Apr-16 00:00:00.0000, -3.640686606956320E+08, 1.075015373570437E+08, 9.507648862984084E+06,
2459692.500000000, A.D. 2022-Apr-23 00:00:00.0000, -3.662202645428113E+08, 9.721979003332447E+07, 1.020171327410838E+07,
2459699.500000000, A.D. 2022-Apr-30 00:00:00.0000, -3.680454707672396E+08, 8.685141299613144E+07, 1.088668437828937E+07,
2459706.500000000, A.D. 2022-May-07 00:00:00.0000, -3.695407484156828E+08, 7.640520085411501E+07, 1.156189538213699E+07,
2459713.500000000, A.D. 2022-May-14 00:00:00.0000, -3.707027099894679E+08, 6.589009670888485E+07, 1.222667696640283E+07,
2459720.500000000, A.D. 2022-May-21 00:00:00.0000, -3.715281155629112E+08, 5.531519655197304E+07, 1.288035717945731E+07,
2459727.500000000, A.D. 2022-May-28 00:00:00.0000, -3.720138779301003E+08, 4.468975390757722E+07, 1.352226141525028E+07,
2459734.500000000, A.D. 2022-Jun-04 00:00:00.0000, -3.721570685280357E+08, 3.402318438744887E+07, 1.415171242699929E+07,
2459741.500000000, A.D. 2022-Jun-11 00:00:00.0000, -3.719549240150646E+08, 2.332507013698564E+07, 1.476803036607883E+07,
2459748.500000000, A.D. 2022-Jun-18 00:00:00.0000, -3.714048534898594E+08, 1.260516415937547E+07, 1.537053284638199E+07,
2459755.500000000, A.D. 2022-Jun-25 00:00:00.0000, -3.705044463465577E+08, 1.873394455228673E+06, 1.595853503165478E+07,
2459762.500000000, A.D. 2022-Jul-02 00:00:00.0000, -3.692514806579416E+08, -8.860132120326001E+06, 1.653134973126895E+07,
2459769.500000000, A.D. 2022-Jul-09 00:00:00.0000, -3.676439317226291E+08, -1.958512614157127E+07, 1.708828748647633E+07,
2459776.500000000, A.D. 2022-Jul-16 00:00:00.0000, -3.656799808573399E+08, -3.029111099361863E+07, 1.762865674428762E+07,
2459783.500000000, A.D. 2022-Jul-23 00:00:00.0000, -3.633580266588835E+08, -4.096741731799704E+07, 1.815176433071498E+07,
2459790.500000000, A.D. 2022-Jul-30 00:00:00.0000, -3.606766986814148E+08, -5.160317992571336E+07, 1.865691594563777E+07,
2459797.500000000, A.D. 2022-Aug-06 00:00:00.0000, -3.576348699603811E+08, -6.218733658081245E+07, 1.914341640687741E+07,
2459804.500000000, A.D. 2022-Aug-13 00:00:00.0000, -3.542316692297201E+08, -7.270862595449649E+07, 1.961056994910310E+07,
2459811.500000000, A.D. 2022-Aug-20 00:00:00.0000, -3.504664944216489E+08, -8.315558531679539E+07, 2.005768068514489E+07,
2459818.500000000, A.D. 2022-Aug-27 00:00:00.0000, -3.463390274039736E+08, -9.351654876418491E+07, 2.048405316898454E+07,
2459825.500000000, A.D. 2022-Sep-03 00:00:00.0000, -3.418492497306303E+08, -1.037796461699614E+08, 2.088899303412477E+07,
2459832.500000000, A.D. 2022-Sep-10 00:00:00.0000, -3.369974593348503E+08, -1.139328029148853E+08, 2.127180770688521E+07,
2459839.500000000, A.D. 2022-Sep-17 00:00:00.0000, -3.317842881502255E+08, -1.239637404886675E+08, 2.163180719776360E+07,
2459846.500000000, A.D. 2022-Sep-24 00:00:00.0000, -3.262107206097901E+08, -1.338599781101467E+08, 2.196830496727998E+07,
2459853.500000000, A.D. 2022-Oct-01 00:00:00.0000, -3.202781127893592E+08, -1.436088354933158E+08, 2.228061884880880E+07,
2459860.500000000, A.D. 2022-Oct-08 00:00:00.0000, -3.139882117885332E+08, -1.531974363491023E+08, 2.256807204029944E+07,
2459867.500000000, A.D. 2022-Oct-15 00:00:00.0000, -3.073431762738733E+08, -1.626127115417804E+08, 2.282999435503287E+07,
2459874.500000000, A.D. 2022-Oct-22 00:00:00.0000, -3.003456003481250E+08, -1.718414037085350E+08, 2.306572380036765E+07,
2459881.500000000, A.D. 2022-Oct-29 00:00:00.0000, -2.929985382190670E+08, -1.808700760680502E+08, 2.327460804967196E+07,
2459888.500000000, A.D. 2022-Nov-05 00:00:00.0000, -2.853055275252937E+08, -1.896851228166344E+08, 2.345600584491602E+07,
2459895.500000000, A.D. 2022-Nov-12 00:00:00.0000, -2.772706132224510E+08, -1.982727799942286E+08, 2.360928861917181E+07,
2459902.500000000, A.D. 2022-Nov-19 00:00:00.0000, -2.688983726749048E+08, -2.066191379374759E+08, 2.373384233221383E+07,
2459909.500000000, A.D. 2022-Nov-26 00:00:00.0000, -2.601939416076846E+08, -2.147101558908756E+08, 2.382906946830583E+07,
2459916.500000000, A.D. 2022-Dec-03 00:00:00.0000, -2.511630406578257E+08, -2.225316789641655E+08, 2.389439118619182E+07,
2459923.500000000, A.D. 2022-Dec-10 00:00:00.0000, -2.418120023633349E+08, -2.300694575918390E+08, 2.392924962452490E+07,
2459930.500000000, A.D. 2022-Dec-17 00:00:00.0000, -2.321477984206200E+08, -2.373091696933298E+08, 2.393311036297721E+07,
2459937.500000000, A.D. 2022-Dec-24 00:00:00.0000, -2.221780669272947E+08, -2.442364457738184E+08, 2.390546502656622E+07,
2459944.500000000, A.D. 2022-Dec-31 00:00:00.0000, -2.119111390503782E+08, -2.508368970315015E+08, 2.384583401061405E+07,
2459951.500000000, A.D. 2023-Jan-07 00:00:00.0000, -2.013560647653856E+08, -2.570961456776145E+08, 2.375376939355777E+07,
2459958.500000000, A.D. 2023-Jan-14 00:00:00.0000, -1.905226393694226E+08, -2.629998571318390E+08, 2.362885825638407E+07,
2459965.500000000, A.D. 2023-Jan-21 00:00:00.0000, -1.794214311155384E+08, -2.685337774140512E+08, 2.347072620394206E+07,
2459972.500000000, A.D. 2023-Jan-28 00:00:00.0000, -1.680638059713968E+08, -2.736837760627446E+08, 2.327904072919656E+07,
2459979.500000000, A.D. 2023-Feb-04 00:00:00.0000, -1.564619493492406E+08, -2.784358916642023E+08, 2.305351467824866E+07,
2459986.500000000, A.D. 2023-Feb-11 00:00:00.0000, -1.446288862047545E+08, -2.827763802663844E+08, 2.279390995295970E+07,
2459993.500000000, A.D. 2023-Feb-18 00:00:00.0000, -1.325784991343318E+08, -2.866917675443017E+08, 2.250004137372454E+07,
2460000.500000000, A.D. 2023-Feb-25 00:00:00.0000, -1.203255437388136E+08, -2.901689048803170E+08, 2.217178064458452E+07,
2460007.500000000, A.D. 2023-Mar-04 00:00:00.0000, -1.078856606501397E+08, -2.931950292963102E+08, 2.180906038805041E+07,
2460014.500000000, A.D. 2023-Mar-11 00:00:00.0000, -9.527538366539976E+07, -2.957578271403612E+08, 2.141187821860874E+07,
2460021.500000000, A.D. 2023-Mar-18 00:00:00.0000, -8.251214339447989E+07, -2.978455014171321E+08, 2.098030081409444E+07,
2460028.500000000, A.D. 2023-Mar-25 00:00:00.0000, -6.961426565569523E+07, -2.994468425761007E+08, 2.051446792503275E+07,
2460035.500000000, A.D. 2023-Apr-01 00:00:00.0000, -5.660096362415364E+07, -3.005513020523250E+08, 2.001459627257368E+07,
2460042.500000000, A.D. 2023-Apr-08 00:00:00.0000, -4.349232377941533E+07, -3.011490669375569E+08, 1.948098344391237E+07,
2460049.500000000, A.D. 2023-Apr-15 00:00:00.0000, -3.030928743339690E+07, -3.012311363985211E+08, 1.891401185632119E+07,
2460056.500000000, A.D. 2023-Apr-22 00:00:00.0000, -1.707362549826418E+07, -3.007894023119714E+08, 1.831415231701908E+07,
2460063.500000000, A.D. 2023-Apr-29 00:00:00.0000, -3.807903270707580E+06, -2.998167311902451E+08, 1.768196705165359E+07,
2460070.500000000, A.D. 2023-May-06 00:00:00.0000, 9.464563435849559E+06, -2.983070448470177E+08, 1.701811244524753E+07,
2460077.500000000, A.D. 2023-May-13 00:00:00.0000, 2.271976018789840E+07, -2.962553998318658E+08, 1.632334144654816E+07,
2460084.500000000, A.D. 2023-May-20 00:00:00.0000, 3.593303435216789E+07, -2.936580651713348E+08, 1.559850550727876E+07,
2460091.500000000, A.D. 2023-May-27 00:00:00.0000, 4.907916438193517E+07, -2.905125974128048E+08, 1.484455596920684E+07,
2460098.500000000, A.D. 2023-Jun-03 00:00:00.0000, 6.213243804746193E+07, -2.868179118432736E+08, 1.406254482990015E+07,
2460105.500000000, A.D. 2023-Jun-10 00:00:00.0000, 7.506673951338564E+07, -2.825743487446009E+08, 1.325362482090910E+07,
2460112.500000000, A.D. 2023-Jun-17 00:00:00.0000, 8.785564507494324E+07, -2.777837335683982E+08, 1.241904872863355E+07,
2460119.500000000, A.D. 2023-Jun-24 00:00:00.0000, 1.004725274237876E+08, -2.724494297973066E+08, 1.156016788472824E+07,
2460126.500000000, A.D. 2023-Jul-01 00:00:00.0000, 1.128906680662773E+08, -2.665763825082586E+08, 1.067842983095685E+07,
2460133.500000000, A.D. 2023-Jul-08 00:00:00.0000, 1.250833754068021E+08, -2.601711507071395E+08, 9.775375349493429E+06,
2460140.500000000, A.D. 2023-Jul-15 00:00:00.0000, 1.370241062248234E+08, -2.532419302328747E+08, 8.852634726225704E+06,
2460147.500000000, A.D. 2023-Jul-22 00:00:00.0000, 1.486865929001569E+08, -2.457985673451535E+08, 7.911922834994897E+06,
$$EOE